0 COSMOS 2251 DEB
1 35718U 93036AQP 13282.26235843  .00001504  00000-0  51475-3 0  2802
2 35718 074.0473 144.5242 0023033 224.8901 135.0226 14.36981097229033
0 COSMOS 2251 DEB
1 35718U 93036AQP 13283.30663679  .00001550  00000-0  53008-3 0  2816
2 35718 074.0467 142.6042 0023338 221.7353 138.2106 14.36984932229187
0 COSMOS 2251 DEB
1 35718U 93036AQP 13286.92676945  .00001906  00000-0  64994-3 0  2830
2 35718 074.0437 135.9528 0021666 216.6439 143.3332 14.37000970229706
0 COSMOS 2251 DEB
1 35718U 93036AQP 13288.94566663  .00002093  00000-0  71252-3 0  2843
2 35718 074.0391 132.2327 0021850 214.3436 145.6340 14.37010555229994
0 COSMOS 2251 DEB
1 35718U 93036AQP 13289.92030201  .00002189  00000-0  74457-3 0  2853
2 35718 074.0432 130.4465 0022615 209.0997 150.9004 14.37015899230136
0 COSMOS 2251 DEB
1 35718U 93036AQP 13291.24301652  .00002394  00000-0  81349-3 0  2869
2 35718 074.0440 128.0167 0022952 205.6254 154.3957 14.37023923230322
0 COSMOS 2251 DEB
1 35718U 93036AQP 13293.19226620  .00002597  00000-0  88166-3 0  2876
2 35718 074.0434 124.4378 0022223 203.8488 156.1801 14.37035860230601
0 COSMOS 2251 DEB
1 35718U 93036AQP 13294.86303812  .00002709  00000-0  91895-3 0  2889
2 35718 074.0438 121.3673 0022407 199.4541 160.5800 14.37045504230843
